OBJECT_NAME,OBJECT_ID,EPOCH,MEAN_MOTION,ECCENTRICITY,INCLINATION,RA_OF_ASC_NODE,ARG_OF_PERICENTER,MEAN_ANOMALY,EPHEMERIS_TYPE,CLASSIFICATION_TYPE,NORAD_CAT_ID,ELEMENT_SET_NO,REV_AT_EPOCH,BSTAR,MEAN_MOTION_DOT,MEAN_MOTION_DDOT
STARLINK-4672,2022-104E,2025-10-10T01:33:39.482784,15.08836994,.00014272,53.2169,200.4402,87.9404,272.1751,0,U,53592,999,17320,-.8778197E-5,-.428E-5,0
STARLINK-4681,2022-104G,2025-10-10T01:11:02.660640,15.08903399,.00009808,53.2168,200.3486,84.9172,275.1932,0,U,53594,999,17334,-.73211006E-3,-.11941E-3,0
STARLINK-4684,2022-104H,2025-10-10T01:16:21.935424,15.08830831,.00014145,53.2170,200.3676,83.9341,276.1813,0,U,53595,999,17320,-.97288156E-4,-.1836E-4,0
STARLINK-4676,2022-104L,2025-10-10T02:14:37.497120,15.08822853,.00013519,53.2163,199.9107,91.0446,269.0701,0,U,53598,999,17288,.34697167E-3,.5236E-4,0
STARLINK-4677,2022-104N,2025-10-10T02:10:47.743968,15.08846179,.00014171,53.2174,200.5848,83.1265,276.9888,0,U,53600,999,17287,.39735389E-4,.345E-5,0
STARLINK-4675,2022-104P,2025-10-10T00:55:07.869792,15.08844033,.00014331,53.2173,200.2780,89.1215,270.9941,0,U,53601,999,17287,.73498387E-4,.882E-5,0
STARLINK-4648,2022-104Q,2025-10-09T23:28:22.616256,15.08840409,.0001297,53.2177,195.6312,104.5765,255.5371,0,U,53602,999,17293,-.70015E-4,-.1402E-4,0
STARLINK-4692,2022-104R,2025-10-10T01:35:37.294368,15.08827753,.00012599,53.2140,195.4654,73.3888,286.7242,0,U,53603,999,17294,-.36560382E-4,-.869E-5,0
STARLINK-4690,2022-104S,2025-10-10T00:53:09.212352,15.08845822,.00016331,53.2193,195.2870,88.7730,271.3449,0,U,53604,999,17294,-.12219671E-3,-.2233E-4,0
STARLINK-4693,2022-104T,2025-10-10T02:19:54.828768,15.08840966,.000141,53.2176,199.9331,83.0766,277.0387,0,U,53605,999,17288,.14117866E-4,-.63E-6,0
STARLINK-4590,2022-104U,2025-10-10T01:28:18.449760,15.08838119,.00014076,53.2169,190.4306,86.5419,273.5734,0,U,53606,999,17289,.927187E-5,-.14E-5,0
STARLINK-4591,2022-104V,2025-10-09T23:44:18.182112,15.08834950,.00012839,53.2172,195.6958,81.4293,278.6844,0,U,53607,999,17293,-.90504131E-4,-.1728E-4,0
STARLINK-4647,2022-104W,2025-10-10T00:03:31.915008,15.08838211,.00014011,53.2169,190.7742,85.4618,274.6534,0,U,53608,999,17288,-.31751589E-4,-.793E-5,0
STARLINK-4660,2022-104X,2025-10-10T00:31:55.889760,15.08840328,.00015119,53.2177,195.1965,73.6057,286.5102,0,U,53609,999,17294,.5855626E-5,-.195E-5,0
STARLINK-4610,2022-104Y,2025-10-10T01:29:42.146304,15.08817501,.00012899,53.2173,190.4391,103.0475,257.0662,0,U,53610,999,17289,-.27474194E-3,-.4655E-4,0
STARLINK-4658,2022-104AA,2025-10-10T01:23:01.018752,15.08818711,.00013532,53.2162,190.4074,86.7741,273.3406,0,U,53612,999,17289,-.30867776E-3,-.5194E-4,0
STARLINK-4655,2022-104AB,2025-10-10T01:33:37.469664,15.08842425,.00015122,53.2156,190.4532,93.2246,266.8919,0,U,53613,999,17289,.36372743E-3,.5506E-4,0
STARLINK-4605,2022-104AE,2025-10-09T23:43:35.886720,15.08820229,.00013612,53.2166,180.5203,91.6758,268.4391,0,U,53616,999,17313,-.35885015E-3,-.5991E-4,0
STARLINK-4609,2022-104AH,2025-10-09T23:37:00.143616,15.08836273,.00013567,53.2170,190.6597,87.9110,272.2038,0,U,53619,999,17288,-.39947824E-4,-.924E-5,0
STARLINK-4615,2022-104AJ,2025-10-09T23:15:46.466784,15.08846509,.0001229,53.2165,190.5677,91.0922,269.0211,0,U,53620,999,17299,-.13958E-3,-.2509E-4,0
STARLINK-4608,2022-104AK,2025-10-09T23:31:41.509056,15.08839433,.0001496,53.2165,190.6394,101.5033,258.6127,0,U,53621,999,17288,-.14388E-3,-.2577E-4,0
STARLINK-4568,2022-104AL,2025-10-10T00:19:19.646976,15.08841100,.00011898,53.2162,190.1386,91.3810,268.7319,0,U,53622,999,17300,.59636417E-4,.661E-5,0
STARLINK-4573,2022-104AM,2025-10-10T00:56:27.962592,15.08838532,.00012359,53.2154,190.2936,95.2894,264.8239,0,U,53623,999,17300,-.44071117E-4,-.989E-5,0
STARLINK-4596,2022-104AN,2025-10-10T00:40:34.089312,15.08843862,.00012608,53.2168,190.2265,80.7859,279.3276,0,U,53624,999,17300,.42029684E-3,.6408E-4,0
STARLINK-4554,2022-104AQ,2025-10-10T00:24:38.312640,15.08827889,.00014027,53.2162,190.1577,84.5747,275.5405,0,U,53626,999,17301,.58506942E-3,.9033E-4,0
STARLINK-4595,2022-104AR,2025-10-10T00:35:14.615808,15.08839337,.00015489,53.2171,190.2028,96.0418,264.0750,0,U,53627,999,17301,.12284472E-3,.1668E-4,0
STARLINK-4600,2022-104AS,2025-10-10T00:14:01.218912,15.08834634,.00015001,53.2168,190.1117,87.5460,272.5704,0,U,53628,999,17301,.59474473E-4,.659E-5,0
STARLINK-4602,2022-104AT,2025-10-09T11:46:50.913984,15.08837844,.0001362,53.2149,192.5584,97.0737,263.0410,0,U,53629,999,17293,.58942E-4,.65E-5,0
STARLINK-4598,2022-104AU,2025-10-09T23:45:01.128096,15.08840599,.00017043,53.2179,180.7155,67.7435,292.3738,0,U,53630,999,17331,-.94578125E-4,-.1793E-4,0
STARLINK-4599,2022-104AV,2025-10-09T22:33:19.496736,15.08842759,.0001403,53.2171,190.3858,82.7085,277.4066,0,U,53631,999,17300,.73976E-5,-.17E-5,0
