STARLINK-4672           
1 53592U 22104E   25283.06504031 -.00000428  00000+0 -87782-5 0  9994
2 53592  53.2169 200.4402 0001427  87.9404 272.1751 15.08836994173201
STARLINK-4681           
1 53594U 22104G   25283.04933635 -.00011941  00000+0 -73211-3 0  9992
2 53594  53.2168 200.3486 0000980  84.9172 275.1932 15.08903399173348
STARLINK-4684           
1 53595U 22104H   25283.05303166 -.00001836  00000+0 -97288-4 0  9997
2 53595  53.2170 200.3676 0001414  83.9341 276.1813 15.08830831173207
STARLINK-4676           
1 53598U 22104L   25283.09348955  .00005236  00000+0  34697-3 0  9999
2 53598  53.2163 199.9107 0001351  91.0446 269.0701 15.08822853172885
STARLINK-4677           
1 53600U 22104N   25283.09083037  .00000345  00000+0  39735-4 0  9995
2 53600  53.2174 200.5848 0001417  83.1265 276.9888 15.08846179172875
STARLINK-4675           
1 53601U 22104P   25283.03828553  .00000882  00000+0  73498-4 0  9990
2 53601  53.2173 200.2780 0001433  89.1215 270.9941 15.08844033172877
STARLINK-4648           
1 53602U 22104Q   25282.97803954 -.00001402  00000+0 -70015-4 0  9994
2 53602  53.2177 195.6312 0001297 104.5765 255.5371 15.08840409172936
STARLINK-4692           
1 53603U 22104R   25283.06640387 -.00000869  00000+0 -36560-4 0  9998
2 53603  53.2140 195.4654 0001259  73.3888 286.7242 15.08827753172942
STARLINK-4690           
1 53604U 22104S   25283.03691218 -.00002233  00000+0 -12220-3 0  9998
2 53604  53.2193 195.2870 0001633  88.7730 271.3449 15.08845822172947
STARLINK-4693           
1 53605U 22104T   25283.09716237 -.00000063  00000+0  14118-4 0  9991
2 53605  53.2176 199.9331 0001410  83.0766 277.0387 15.08840966172883
STARLINK-4590           
1 53606U 22104U   25283.06132465 -.00000140  00000+0  92719-5 0  9994
2 53606  53.2169 190.4306 0001407  86.5419 273.5734 15.08838119172898
STARLINK-4591           
1 53607U 22104V   25282.98909933 -.00001728  00000+0 -90504-4 0  9990
2 53607  53.2172 195.6958 0001283  81.4293 278.6844 15.08834950172931
STARLINK-4647           
1 53608U 22104W   25283.00245272 -.00000793  00000+0 -31752-4 0  9995
2 53608  53.2169 190.7742 0001401  85.4618 274.6534 15.08838211172882
STARLINK-4660           
1 53609U 22104X   25283.02217465 -.00000195  00000+0  58556-5 0  9998
2 53609  53.2177 195.1965 0001511  73.6057 286.5102 15.08840328172948
STARLINK-4610           
1 53610U 22104Y   25283.06229336 -.00004655  00000+0 -27474-3 0  9993
2 53610  53.2173 190.4391 0001289 103.0475 257.0662 15.08817501172896
STARLINK-4658           
1 53612U 22104AA  25283.05765068 -.00005194  00000+0 -30868-3 0  9991
2 53612  53.2162 190.4074 0001353  86.7741 273.3406 15.08818711172890
STARLINK-4655           
1 53613U 22104AB  25283.06501701  .00005506  00000+0  36373-3 0  9997
2 53613  53.2156 190.4532 0001512  93.2246 266.8919 15.08842425172898
STARLINK-4605           
1 53616U 22104AE  25282.98860980 -.00005991  00000+0 -35885-3 0  9994
2 53616  53.2166 180.5203 0001361  91.6758 268.4391 15.08820229173137
STARLINK-4609           
1 53619U 22104AH  25282.98402944 -.00000924  00000+0 -39948-4 0  9995
2 53619  53.2170 190.6597 0001356  87.9110 272.2038 15.08836273172885
STARLINK-4615           
1 53620U 22104AJ  25282.96928781 -.00002509  00000+0 -13958-3 0  9990
2 53620  53.2165 190.5677 0001229  91.0922 269.0211 15.08846509172997
STARLINK-4608           
1 53621U 22104AK  25282.98034154 -.00002577  00000+0 -14388-3 0  9998
2 53621  53.2165 190.6394 0001496 101.5033 258.6127 15.08839433172887
STARLINK-4568           
1 53622U 22104AL  25283.01342184  .00000661  00000+0  59636-4 0  9995
2 53622  53.2162 190.1386 0001189  91.3810 268.7319 15.08841100173003
STARLINK-4573           
1 53623U 22104AM  25283.03921253 -.00000989  00000+0 -44071-4 0  9990
2 53623  53.2154 190.2936 0001235  95.2894 264.8239 15.08838532173007
STARLINK-4596           
1 53624U 22104AN  25283.02817233  .00006408  00000+0  42030-3 0  9994
2 53624  53.2168 190.2265 0001260  80.7859 279.3276 15.08843862173000
STARLINK-4554           
1 53626U 22104AQ  25283.01711010  .00009033  00000+0  58507-3 0  9994
2 53626  53.2162 190.1577 0001402  84.5747 275.5405 15.08827889173011
STARLINK-4595           
1 53627U 22104AR  25283.02447472  .00001668  00000+0  12284-3 0  9992
2 53627  53.2171 190.2028 0001548  96.0418 264.0750 15.08839337173015
STARLINK-4600           
1 53628U 22104AS  25283.00973633  .00000659  00000+0  59474-4 0  9996
2 53628  53.2168 190.1117 0001500  87.5460 272.5704 15.08834634173018
STARLINK-4602           
1 53629U 22104AT  25282.49086706  .00000650  00000+0  58942-4 0  9995
2 53629  53.2149 192.5584 0001362  97.0737 263.0410 15.08837844172936
STARLINK-4598           
1 53630U 22104AU  25282.98959639 -.00001793  00000+0 -94578-4 0  9991
2 53630  53.2179 180.7155 0001704  67.7435 292.3738 15.08840599173315
STARLINK-4599           
1 53631U 22104AV  25282.93980899 -.00000170  00000+0  73976-5 0  9996
2 53631  53.2171 190.3858 0001403  82.7085 277.4066 15.08842759173003
